[
    {
        "Altitude(m)": 611965.2325666447,
        "Argument of Periapsis(deg)": 0.0,
        "Eccentricity": 0.0,
        "Inclination(deg)": 60.0,
        "Latitude(deg)": 59.1403046721898,
        "Longitude(deg)": 123.96988452107992,
        "Mean Anomaly(deg)": 81.81820000000003,
        "RAAN(deg)": 150.0,
        "Satellite Name": "Test1 665",
        "Satellite Number": 665,
        "Semi-Major Axis(m)": 6980739.136638005,
        "Time(s)": 0
    },
    {
        "Altitude(m)": 611995.8576754343,
        "Argument of Periapsis(deg)": 0.00010418945913296404,
        "Eccentricity": 0.0,
        "Inclination(deg)": 60.0,
        "Latitude(deg)": 59.28340383609725,
        "Longitude(deg)": 125.10325181519006,
        "Mean Anomaly(deg)": 82.43830614546184,
        "RAAN(deg)": 149.99957995086027,
        "Satellite Name": "Test1 665",
        "Satellite Number": 665,
        "Semi-Major Axis(m)": 6980739.136638005,
        "Time(s)": 10
    },
    {
        "Altitude(m)": 612024.1418901028,
        "Argument of Periapsis(deg)": 0.0002083789182659281,
        "Eccentricity": 0.0,
        "Inclination(deg)": 60.0,
        "Latitude(deg)": 59.415820889029554,
        "Longitude(deg)": 126.2461426611907,
        "Mean Anomaly(deg)": 83.05841229092367,
        "RAAN(deg)": 149.99915990172053,
        "Satellite Name": "Test1 665",
        "Satellite Number": 665,
        "Semi-Major Axis(m)": 6980739.136638005,
        "Time(s)": 20
    },
    {
        "Altitude(m)": 612050.0689919905,
        "Argument of Periapsis(deg)": 0.00031256837739889213,
        "Eccentricity": 0.0,
        "Inclination(deg)": 60.0,
        "Latitude(deg)": 59.537416405864,
        "Longitude(deg)": 127.39792904111309,
        "Mean Anomaly(deg)": 83.67851843638552,
        "RAAN(deg)": 149.99873985258077,
        "Satellite Name": "Test1 665",
        "Satellite Number": 665,
        "Semi-Major Axis(m)": 6980739.136638005,
        "Time(s)": 30
    },
    {
        "Altitude(m)": 612073.6241226916,
        "Argument of Periapsis(deg)": 0.0004167578365318562,
        "Eccentricity": 0.0,
        "Inclination(deg)": 60.0,
        "Latitude(deg)": 59.648060217937946,
        "Longitude(deg)": 128.55794732106028,
        "Mean Anomaly(deg)": 84.29862458184735,
        "RAAN(deg)": 149.99831980344103,
        "Satellite Name": "Test1 665",
        "Satellite Number": 665,
        "Semi-Major Axis(m)": 6980739.136638005,
        "Time(s)": 40
    },
    {
        "Altitude(m)": 612094.7937910594,
        "Argument of Periapsis(deg)": 0.0005209472956648203,
        "Eccentricity": 0.0,
        "Inclination(deg)": 60.0,
        "Latitude(deg)": 59.74763206619861,
        "Longitude(deg)": 129.72549911021292,
        "Mean Anomaly(deg)": 84.91873072730914,
        "RAAN(deg)": 149.9978997543013,
        "Satellite Name": "Test1 665",
        "Satellite Number": 665,
        "Semi-Major Axis(m)": 6980739.136638005,
        "Time(s)": 50
    },
    {
        "Altitude(m)": 612113.5658795662,
        "Argument of Periapsis(deg)": 0.0006251367547977843,
        "Eccentricity": 0.0,
        "Inclination(deg)": 60.0,
        "Latitude(deg)": 59.83602222078685,
        "Longitude(deg)": 130.89985396564296,
        "Mean Anomaly(deg)": 85.53883687277097,
        "RAAN(deg)": 149.99747970516157,
        "Satellite Name": "Test1 665",
        "Satellite Number": 665,
        "Semi-Major Axis(m)": 6980739.136638005,
        "Time(s)": 60
    },
    {
        "Altitude(m)": 612129.9296500084,
        "Argument of Periapsis(deg)": 0.0007293262139307483,
        "Eccentricity": 0.0,
        "Inclination(deg)": 60.0,
        "Latitude(deg)": 59.91313205999244,
        "Longitude(deg)": 132.0802524195028,
        "Mean Anomaly(deg)": 86.15894301823282,
        "RAAN(deg)": 149.9970596560218,
        "Satellite Name": "Test1 665",
        "Satellite Number": 665,
        "Semi-Major Axis(m)": 6980739.136638005,
        "Time(s)": 70
    },
    {
        "Altitude(m)": 612143.875748572,
        "Argument of Periapsis(deg)": 0.0008335156730637124,
        "Eccentricity": 0.0,
        "Inclination(deg)": 60.0,
        "Latitude(deg)": 59.978874601756814,
        "Longitude(deg)": 133.26590779955993,
        "Mean Anomaly(deg)": 86.77904916369465,
        "RAAN(deg)": 149.99663960688207,
        "Satellite Name": "Test1 665",
        "Satellite Number": 665,
        "Semi-Major Axis(m)": 6980739.136638005,
        "Time(s)": 80
    },
    {
        "Altitude(m)": 612155.3962102402,
        "Argument of Periapsis(deg)": 0.0009377051321966765,
        "Eccentricity": 0.0,
        "Inclination(deg)": 60.0,
        "Latitude(deg)": 60.03317498125561,
        "Longitude(deg)": 134.45600984700363,
        "Mean Anomaly(deg)": 87.3991553091565,
        "RAAN(deg)": 149.99621955774234,
        "Satellite Name": "Test1 665",
        "Satellite Number": 665,
        "Semi-Major Axis(m)": 6980739.136638005,
        "Time(s)": 90
    },
    {
        "Altitude(m)": 612164.4844625297,
        "Argument of Periapsis(deg)": 0.0010418945913296407,
        "Eccentricity": 0.0,
        "Inclination(deg)": 60.0,
        "Latitude(deg)": 60.075970868593345,
        "Longitude(deg)": 135.64972859134653,
        "Mean Anomaly(deg)": 88.01926145461833,
        "RAAN(deg)": 149.9957995086026,
        "Satellite Name": "Test1 665",
        "Satellite Number": 665,
        "Semi-Major Axis(m)": 6980739.136638005,
        "Time(s)": 100
    },
    {
        "Altitude(m)": 612171.1353286029,
        "Argument of Periapsis(deg)": 0.0011460840504626045,
        "Eccentricity": 0.0,
        "Inclination(deg)": 60.0,
        "Latitude(deg)": 60.10721282127046,
        "Longitude(deg)": 136.84621693713635,
        "Mean Anomaly(deg)": 88.63936760008013,
        "RAAN(deg)": 149.99537945946284,
        "Satellite Name": "Test1 665",
        "Satellite Number": 665,
        "Semi-Major Axis(m)": 6980739.136638005,
        "Time(s)": 110
    },
    {
        "Altitude(m)": 612175.3450296904,
        "Argument of Periapsis(deg)": 0.0012502735095955685,
        "Eccentricity": 0.0,
        "Inclination(deg)": 60.0,
        "Latitude(deg)": 60.126864566824075,
        "Longitude(deg)": 138.04461495124414,
        "Mean Anomaly(deg)": 89.25947374554197,
        "RAAN(deg)": 149.9949594103231,
        "Satellite Name": "Test1 665",
        "Satellite Number": 665,
        "Semi-Major Axis(m)": 6980739.136638005,
        "Time(s)": 120
    },
    {
        "Altitude(m)": 612177.1111868727,
        "Argument of Periapsis(deg)": 0.0013544629687285324,
        "Eccentricity": 0.0,
        "Inclination(deg)": 60.0,
        "Latitude(deg)": 60.13490321190311,
        "Longitude(deg)": 139.24405429695014,
        "Mean Anomaly(deg)": 89.87957989100381,
        "RAAN(deg)": 149.99453936118334,
        "Satellite Name": "Test1 665",
        "Satellite Number": 665,
        "Semi-Major Axis(m)": 6980739.136638005,
        "Time(s)": 130
    },
    {
        "Altitude(m)": 612176.4328221956,
        "Argument of Periapsis(deg)": 0.0014586524278614966,
        "Eccentricity": 0.0,
        "Inclination(deg)": 60.0,
        "Latitude(deg)": 60.131319374979064,
        "Longitude(deg)": 140.44366125794346,
        "Mean Anomaly(deg)": 90.49968603646565,
        "RAAN(deg)": 149.9941193120436,
        "Satellite Name": "Test1 665",
        "Satellite Number": 665,
        "Semi-Major Axis(m)": 6980739.136638005,
        "Time(s)": 140
    },
    {
        "Altitude(m)": 612173.3103591319,
        "Argument of Periapsis(deg)": 0.0015628418869944607,
        "Eccentricity": 0.0,
        "Inclination(deg)": 60.0,
        "Latitude(deg)": 60.11611724089792,
        "Longitude(deg)": 141.64256133177716,
        "Mean Anomaly(deg)": 91.11979218192745,
        "RAAN(deg)": 149.99369926290387,
        "Satellite Name": "Test1 665",
        "Satellite Number": 665,
        "Semi-Major Axis(m)": 6980739.136638005,
        "Time(s)": 150
    },
    {
        "Altitude(m)": 612167.7456223678,
        "Argument of Periapsis(deg)": 0.0016670313461274247,
        "Eccentricity": 0.0,
        "Inclination(deg)": 60.0,
        "Latitude(deg)": 60.08931453653488,
        "Longitude(deg)": 142.83988383246705,
        "Mean Anomaly(deg)": 91.73989832738928,
        "RAAN(deg)": 149.99327921376414,
        "Satellite Name": "Test1 665",
        "Satellite Number": 665,
        "Semi-Major Axis(m)": 6980739.136638005,
        "Time(s)": 160
    },
    {
        "Altitude(m)": 612159.7418369564,
        "Argument of Periapsis(deg)": 0.0017712208052603888,
        "Eccentricity": 0.0,
        "Inclination(deg)": 60.0,
        "Latitude(deg)": 60.05094242788441,
        "Longitude(deg)": 144.03476494172642,
        "Mean Anomaly(deg)": 92.36000447285112,
        "RAAN(deg)": 149.99285916462438,
        "Satellite Name": "Test1 665",
        "Satellite Number": 665,
        "Semi-Major Axis(m)": 6980739.136638005,
        "Time(s)": 170
    },
    {
        "Altitude(m)": 612149.3036267818,
        "Argument of Periapsis(deg)": 0.001875410264393353,
        "Eccentricity": 0.0,
        "Inclination(deg)": 60.0,
        "Latitude(deg)": 60.00104533997385,
        "Longitude(deg)": 145.22635218779064,
        "Mean Anomaly(deg)": 92.98011061831295,
        "RAAN(deg)": 149.99243911548464,
        "Satellite Name": "Test1 665",
        "Satellite Number": 665,
        "Semi-Major Axis(m)": 6980739.136638005,
        "Time(s)": 180
    },
    {
        "Altitude(m)": 612136.4370123807,
        "Argument of Periapsis(deg)": 0.0019795997235263173,
        "Eccentricity": 0.0,
        "Inclination(deg)": 60.0,
        "Latitude(deg)": 59.93968070202261,
        "Longitude(deg)": 146.4138087939905,
        "Mean Anomaly(deg)": 93.60021676377481,
        "RAAN(deg)": 149.9920190663449,
        "Satellite Name": "Test1 665",
        "Satellite Number": 665,
        "Semi-Major Axis(m)": 6980739.136638005,
        "Time(s)": 190
    }
]